{"type": "FeatureCollection", "features": [ {"type": "Feature", "properties": {"norad_id": 34375, "name": "IRIDIUM 33 DEB", "group": "iridium-33-debris", "lat": 86.10278243699486, "lon": -107.27790999280292, "alt_km": 795.872605242067, "timestamp": "2025-12-03T10:52:57.840009+00:00", "meta": {"OBJECT_NAME": "IRIDIUM 33 DEB", "OBJECT_ID": "1997-051FT", "EPOCH": "2025-12-03T01:02:45.120192", "MEAN_MOTION": 14.17964565, "ECCENTRICITY": 0.0102469, "INCLINATION": 86.4333, "RA_OF_ASC_NODE": 186.6042, "ARG_OF_PERICENTER": 157.2608, "MEAN_ANOMALY": 1.3107, "EPHEMERIS_TYPE": 0, "CLASSIFICATION_TYPE": "U", "NORAD_CAT_ID": 34375, "ELEMENT_SET_NO": 999, "REV_AT_EPOCH": 86574, "BSTAR": 0.00052219, "MEAN_MOTION_DOT": 1.144e-05, "MEAN_MOTION_DDOT": 0}, "tle": {"line1": "1 34375U 97051FT  25337.04357778  .00001144  00000+0  52219-3 0  9996", "line2": "2 34375  86.4333 186.6042 0102469 157.2608   1.3107 14.17964565865749"}}, "geometry": {"type": "Point", "coordinates": [-107.27790999280292, 86.10278243699486]}}, {"type": "Feature", "properties": {"norad_id": 34376, "name": "IRIDIUM 33 DEB", "group": "iridium-33-debris", "lat": 56.43101784663505, "lon": 16.310950737904257, "alt_km": 694.7546570171935, "timestamp": "2025-12-03T10:52:57.840020+00:00", "meta": {"OBJECT_NAME": "IRIDIUM 33 DEB", "OBJECT_ID": "1997-051FU", "EPOCH": "2025-12-03T02:24:43.659648", "MEAN_MOTION": 14.62340336, "ECCENTRICITY": 0.002606, "INCLINATION": 86.2996, "RA_OF_ASC_NODE": 10.873, "ARG_OF_PERICENTER": 199.6963, "MEAN_ANOMALY": 160.3244, "EPHEMERIS_TYPE": 0, "CLASSIFICATION_TYPE": "U", "NORAD_CAT_ID": 34376, "ELEMENT_SET_NO": 999, "REV_AT_EPOCH": 87866, "BSTAR": 0.0019924, "MEAN_MOTION_DOT": 0.00010138, "MEAN_MOTION_DDOT": 0}, "tle": {"line1": "1 34376U 97051FU  25337.10050532  .00010138  00000+0  19924-2 0  9990", "line2": "2 34376  86.2996  10.8730 0026060 199.6963 160.3244 14.62340336878668"}}, "geometry": {"type": "Point", "coordinates": [16.310950737904257, 56.43101784663505]}}, {"type": "Feature", "properties": {"norad_id": 34486, "name": "IRIDIUM 33 DEB", "group": "iridium-33-debris", "lat": -71.48151358317702, "lon": -152.8405400463663, "alt_km": 592.2823686796482, "timestamp": "2025-12-03T10:52:57.840031+00:00", "meta": {"OBJECT_NAME": "IRIDIUM 33 DEB", "OBJECT_ID": "1997-051GB", "EPOCH": "2025-12-03T03:36:18.288288", "MEAN_MOTION": 14.9509064, "ECCENTRICITY": 0.0012894, "INCLINATION": 86.3946, "RA_OF_ASC_NODE": 16.449, "ARG_OF_PERICENTER": 144.2468, "MEAN_ANOMALY": 276.3626, "EPHEMERIS_TYPE": 0, "CLASSIFICATION_TYPE": "U", "NORAD_CAT_ID": 34486, "ELEMENT_SET_NO": 999, "REV_AT_EPOCH": 88843, "BSTAR": 0.0028084, "MEAN_MOTION_DOT": 0.0003094, "MEAN_MOTION_DDOT": 0}, "tle": {"line1": "1 34486U 97051GB  25337.15021167  .00030940  00000+0  28084-2 0  9999", "line2": "2 34486  86.3946  16.4490 0012894 144.2468 276.3626 14.95090640888431"}}, "geometry": {"type": "Point", "coordinates": [-152.8405400463663, -71.48151358317702]}}, {"type": "Feature", "properties": {"norad_id": 34487, "name": "IRIDIUM 33 DEB", "group": "iridium-33-debris", "lat": -31.977714997005055, "lon": -161.33736451327877, "alt_km": 740.7616104657973, "timestamp": "2025-12-03T10:52:57.840041+00:00", "meta": {"OBJECT_NAME": "IRIDIUM 33 DEB", "OBJECT_ID": "1997-051GC", "EPOCH": "2025-12-03T01:43:00.776928", "MEAN_MOTION": 14.43195419, "ECCENTRICITY": 0.0031871, "INCLINATION": 86.3443, "RA_OF_ASC_NODE": 16.5394, "ARG_OF_PERICENTER": 159.074, "MEAN_ANOMALY": 229.62, "EPHEMERIS_TYPE": 0, "CLASSIFICATION_TYPE": "U", "NORAD_CAT_ID": 34487, "ELEMENT_SET_NO": 999, "REV_AT_EPOCH": 88109, "BSTAR": 0.00026232, "MEAN_MOTION_DOT": 9.07e-06, "MEAN_MOTION_DDOT": 0}, "tle": {"line1": "1 34487U 97051GC  25337.07153677  .00000907  00000+0  26232-3 0  9997", "line2": "2 34487  86.3443  16.5394 0031871 159.0740 229.6200 14.43195419881098"}}, "geometry": {"type": "Point", "coordinates": [-161.33736451327877, -31.977714997005055]}}, {"type": "Feature", "properties": {"norad_id": 34488, "name": "IRIDIUM 33 DEB", "group": "iridium-33-debris", "lat": -57.28878756575846, "lon": 136.14564455562137, "alt_km": 505.4619291514664, "timestamp": "2025-12-03T10:52:57.840052+00:00", "meta": {"OBJECT_NAME": "IRIDIUM 33 DEB", "OBJECT_ID": "1997-051GD", "EPOCH": "2025-12-02T22:49:46.136352", "MEAN_MOTION": 15.25923999, "ECCENTRICITY": 0.0015674, "INCLINATION": 86.3246, "RA_OF_ASC_NODE": 310.649, "ARG_OF_PERICENTER": 66.3953, "MEAN_ANOMALY": 293.8937, "EPHEMERIS_TYPE": 0, "CLASSIFICATION_TYPE": "U", "NORAD_CAT_ID": 34488, "ELEMENT_SET_NO": 999, "REV_AT_EPOCH": 89090, "BSTAR": 0.005559, "MEAN_MOTION_DOT": 0.0014559, "MEAN_MOTION_DDOT": 0}, "tle": {"line1": "1 34488U 97051GD  25336.95122843  .00145590  00000+0  55590-2 0  9991", "line2": "2 34488  86.3246 310.6490 0015674  66.3953 293.8937 15.25923999890907"}}, "geometry": {"type": "Point", "coordinates": [136.14564455562137, -57.28878756575846]}}, {"type": "Feature", "properties": {"norad_id": 34492, "name": "IRIDIUM 33 DEB", "group": "iridium-33-debris", "lat": 10.437375715013628, "lon": 157.7321718043622, "alt_km": 827.7926647574204, "timestamp": "2025-12-03T10:52:57.840062+00:00", "meta": {"OBJECT_NAME": "IRIDIUM 33 DEB", "OBJECT_ID": "1997-051GH", "EPOCH": "2025-12-02T11:12:49.891104", "MEAN_MOTION": 14.2523388, "ECCENTRICITY": 0.01904279, "INCLINATION": 86.4708, "RA_OF_ASC_NODE": 338.7817, "ARG_OF_PERICENTER": 271.515, "MEAN_ANOMALY": 243.1192, "EPHEMERIS_TYPE": 0, "CLASSIFICATION_TYPE": "U", "NORAD_CAT_ID": 34492, "ELEMENT_SET_NO": 999, "REV_AT_EPOCH": 84912, "BSTAR": 0.0077482505, "MEAN_MOTION_DOT": 0.00022079, "MEAN_MOTION_DDOT": 0}, "tle": {"line1": "1 34492U 97051GH  25336.46724411  .00022079  00000+0  77483-2 0  9992", "line2": "2 34492  86.4708 338.7817 0190427 271.5150 243.1192 14.25233880849120"}}, "geometry": {"type": "Point", "coordinates": [157.7321718043622, 10.437375715013628]}}, {"type": "Feature", "properties": {"norad_id": 34497, "name": "IRIDIUM 33 DEB", "group": "iridium-33-debris", "lat": -14.120003731545347, "lon": 55.42997811275726, "alt_km": 752.3993924045781, "timestamp": "2025-12-03T10:52:57.840073+00:00", "meta": {"OBJECT_NAME": "IRIDIUM 33 DEB", "OBJECT_ID": "1997-051GN", "EPOCH": "2025-12-01T05:14:48.727392", "MEAN_MOTION": 14.27398963, "ECCENTRICITY": 0.0080081, "INCLINATION": 86.2784, "RA_OF_ASC_NODE": 57.3223, "ARG_OF_PERICENTER": 16.9295, "MEAN_ANOMALY": 12.6117, "EPHEMERIS_TYPE": 0, "CLASSIFICATION_TYPE": "U", "NORAD_CAT_ID": 34497, "ELEMENT_SET_NO": 999, "REV_AT_EPOCH": 86719, "BSTAR": 0.00069242, "MEAN_MOTION_DOT": 1.774e-05, "MEAN_MOTION_DDOT": 0}, "tle": {"line1": "1 34497U 97051GN  25335.21861953  .00001774  00000+0  69242-3 0  9996", "line2": "2 34497  86.2784  57.3223 0080081  16.9295  12.6117 14.27398963867196"}}, "geometry": {"type": "Point", "coordinates": [55.42997811275726, -14.120003731545347]}}, {"type": "Feature", "properties": {"norad_id": 34508, "name": "IRIDIUM 33 DEB", "group": "iridium-33-debris", "lat": 40.855242266066334, "lon": -76.56920208339956, "alt_km": 740.4367576165278, "timestamp": "2025-12-03T10:52:57.840084+00:00", "meta": {"OBJECT_NAME": "IRIDIUM 33 DEB", "OBJECT_ID": "1997-051GZ", "EPOCH": "2025-12-02T19:12:23.760000", "MEAN_MOTION": 14.38266528, "ECCENTRICITY": 0.0065434, "INCLINATION": 86.3694, "RA_OF_ASC_NODE": 106.8555, "ARG_OF_PERICENTER": 205.2771, "MEAN_ANOMALY": 154.5222, "EPHEMERIS_TYPE": 0, "CLASSIFICATION_TYPE": "U", "NORAD_CAT_ID": 34508, "ELEMENT_SET_NO": 999, "REV_AT_EPOCH": 87166, "BSTAR": 0.0022851, "MEAN_MOTION_DOT": 7.142e-05, "MEAN_MOTION_DDOT": 0}, "tle": {"line1": "1 34508U 97051GZ  25336.80027500  .00007142  00000+0  22851-2 0  9996", "line2": "2 34508  86.3694 106.8555 0065434 205.2771 154.5222 14.38266528871668"}}, "geometry": {"type": "Point", "coordinates": [-76.56920208339956, 40.855242266066334]}}, {"type": "Feature", "properties": {"norad_id": 34521, "name": "IRIDIUM 33 DEB", "group": "iridium-33-debris", "lat": -24.845251202592213, "lon": -143.68510912889653, "alt_km": 688.460245247431, "timestamp": "2025-12-03T10:52:57.840094+00:00", "meta": {"OBJECT_NAME": "IRIDIUM 33 DEB", "OBJECT_ID": "1997-051HN", "EPOCH": "2025-12-03T03:23:03.909408", "MEAN_MOTION": 14.63221296, "ECCENTRICITY": 0.0001181, "INCLINATION": 86.3816, "RA_OF_ASC_NODE": 34.7733, "ARG_OF_PERICENTER": 295.577, "MEAN_ANOMALY": 64.5319, "EPHEMERIS_TYPE": 0, "CLASSIFICATION_TYPE": "U", "NORAD_CAT_ID": 34521, "ELEMENT_SET_NO": 999, "REV_AT_EPOCH": 88332, "BSTAR": 0.0013023, "MEAN_MOTION_DOT": 6.728e-05, "MEAN_MOTION_DDOT": 0}, "tle": {"line1": "1 34521U 97051HN  25337.14101747  .00006728  00000+0  13023-2 0  9995", "line2": "2 34521  86.3816  34.7733 0001181 295.5770  64.5319 14.63221296883320"}}, "geometry": {"type": "Point", "coordinates": [-143.68510912889653, -24.845251202592213]}}, {"type": "Feature", "properties": {"norad_id": 34525, "name": "IRIDIUM 33 DEB", "group": "iridium-33-debris", "lat": -14.870367889133451, "lon": 49.84194384805516, "alt_km": 756.8308100860086, "timestamp": "2025-12-03T10:52:57.840104+00:00", "meta": {"OBJECT_NAME": "IRIDIUM 33 DEB", "OBJECT_ID": "1997-051HS", "EPOCH": "2025-12-03T04:25:47.712000", "MEAN_MOTION": 14.42865341, "ECCENTRICITY": 0.0006441, "INCLINATION": 86.3736, "RA_OF_ASC_NODE": 50.9215, "ARG_OF_PERICENTER": 117.0433, "MEAN_ANOMALY": 272.5386, "EPHEMERIS_TYPE": 0, "CLASSIFICATION_TYPE": "U", "NORAD_CAT_ID": 34525, "ELEMENT_SET_NO": 999, "REV_AT_EPOCH": 87950, "BSTAR": 0.00051439, "MEAN_MOTION_DOT": 1.736e-05, "MEAN_MOTION_DDOT": 0}, "tle": {"line1": "1 34525U 97051HS  25337.18458000  .00001736  00000+0  51439-3 0  9998", "line2": "2 34525  86.3736  50.9215 0006441 117.0433 272.5386 14.42865341879500"}}, "geometry": {"type": "Point", "coordinates": [49.84194384805516, -14.870367889133451]}}]}